OBJECT_NAME,OBJECT_ID,EPOCH,MEAN_MOTION,ECCENTRICITY,INCLINATION,RA_OF_ASC_NODE,ARG_OF_PERICENTER,MEAN_ANOMALY,EPHEMERIS_TYPE,CLASSIFICATION_TYPE,NORAD_CAT_ID,ELEMENT_SET_NO,REV_AT_EPOCH,BSTAR,MEAN_MOTION_DOT,MEAN_MOTION_DDOT
HAIYANG-2D,2021-043A,2026-06-24T07:19:19.412256,13.83372231,.00115002,65.9993,286.9786,267.9363,92.0388,0,U,48621,999,25753,.20934532E-3,.149E-5,0
2021-050D,2021-050D,2026-06-24T07:09:42.556608,15.23389168,.00043474,97.3334,251.1726,226.7894,133.2980,0,U,48843,999,28004,.21634182E-3,.5077E-4,0
TYVAK-0173,2021-059P,2026-06-24T03:39:52.149024,14.81909525,.00093633,96.0083,249.7781,18.2027,341.9524,0,U,48892,999,26927,.17672255E-3,.1368E-4,0
MANDRAKE 2 ABLE,2021-059AE,2026-06-24T06:02:57.194304,15.55228365,.0003861,97.7036,5.5764,335.9370,24.1702,0,U,48907,999,27822,.28110038E-3,.18918E-3,0
MANDRAKE 2 BAKER,2021-059AF,2026-06-24T06:59:15.112896,15.59887079,.00023315,97.7004,8.5400,333.8250,26.2888,0,U,48908,999,27840,.29815885E-3,.23899E-3,0
PACE-1,2021-059AG,2026-06-24T02:51:34.285248,15.80979962,.00018601,97.6759,14.0483,234.1365,125.9730,0,U,48909,999,27889,.44453786E-3,.8651E-3,0
YAM-3,2021-059AN,2026-06-24T05:44:58.368480,15.48691372,.00042239,97.6994,2.6567,345.0427,15.0697,0,U,48915,999,27808,.19473147E-3,.10327E-3,0
FARADAY_PHOENIX,2021-059AX,2026-06-24T01:24:54.734112,15.80245182,.00037971,97.6802,13.8613,266.0959,93.9874,0,U,48924,999,27874,.77262031E-3,.146567E-2,0
DEMO8 (TENZING),2021-059CA,2026-06-24T06:07:14.468448,15.55228942,.00056433,97.7027,9.2138,326.3223,33.7671,0,U,48951,999,27840,.26664722E-3,.17944E-3,0
NAPA-2,2021-059CN,2026-06-24T05:54:28.534176,16.06763390,.00041113,97.6562,15.4948,231.6374,128.4538,0,U,48963,999,27894,.68659166E-3,.518318E-2,.1326492E-3
FENGYUN 3E,2021-062A,2026-06-24T07:39:09.098784,14.19904912,.00028174,98.7498,178.6474,73.8457,286.3029,0,U,49008,999,25759,.21683659E-4,.2E-7,0
ISS (NAUKA),2021-066A,2026-06-24T03:44:04.640064,15.49396189,.0004427,51.6326,265.6000,224.4953,135.5681,0,U,49044,999,57168,.13974885E-3,.7363E-4,0
STARLINK-3100,2021-082Q,2026-06-23T23:35:58.318368,14.98330298,.0002975,70.0001,26.4436,268.1433,91.9385,0,U,49144,999,26190,.3899475E-5,-.46E-6,0
CUTE,2021-088D,2026-06-24T05:14:07.038528,15.95360523,.00076675,97.4172,275.2045,220.2965,139.7743,0,U,49263,999,26367,.67917977E-3,.266732E-2,.29870169E-4
2021-091B,2021-091B,2026-06-24T07:23:56.905728,15.18582144,.00139947,97.4483,2.7738,22.8064,337.3789,0,U,49316,999,26006,.83311662E-4,.1658E-4,0
SDGSAT 1,2021-100A,2026-06-24T06:40:55.323840,15.19137531,.00078277,97.2629,221.9587,241.9907,118.0537,0,U,49387,999,25699,.11403737E-3,.2331E-4,0
TEIKYOSAT-4 (OORURI),2021-102B,2026-06-24T01:56:32.106624,15.09529088,.00103386,97.3666,204.2963,269.1593,90.8452,0,U,49396,999,25376,.10073775E-3,.1556E-4,0
Z-SAT,2021-102E,2026-06-24T05:59:53.869920,15.18306181,.00154479,97.3326,210.3586,217.8039,142.2111,0,U,49399,999,25451,.17473316E-3,.3528E-4,0
HIBARI,2021-102F,2026-06-24T03:02:07.896192,15.31850016,.0012181,97.3238,220.9508,167.6885,192.4657,0,U,49400,999,25525,.32346217E-3,.9895E-4,0
KOSEN-1,2021-102H,2026-06-24T02:07:19.192512,15.26916621,.00139462,97.3188,217.1116,175.9347,184.2008,0,U,49402,999,25507,.24747278E-3,.6486E-4,0
GLOBAL-14,2021-106A,2026-06-23T21:54:33.246720,15.50885236,.00149636,42.0036,251.1004,69.0773,291.1672,0,U,49469,999,25917,.38357779E-3,.22613E-3,0
GAOFEN-3 02,2021-109A,2026-06-24T08:00:22.175136,14.42218181,.00024721,98.4094,183.3291,358.5461,1.5721,0,U,49495,999,24134,.57608425E-4,.146E-5,0
GLOBAL-12,2021-115BA,2026-06-24T06:39:47.245824,15.53987671,.00028502,53.1960,10.4381,75.8214,284.3114,0,U,49772,999,25700,.45521693E-3,.29575E-3,0
GLOBAL-13,2021-115BB,2026-06-23T23:19:08.546880,15.46272217,.00032383,53.1984,22.3309,125.5858,234.5453,0,U,49773,999,25681,.39363824E-3,.19314E-3,0
GLOBAL-17,2021-120A,2026-06-24T05:31:02.394912,15.52585802,.00157269,41.9961,7.3190,301.1586,58.7716,0,U,49949,999,25599,.41701262E-3,.26206E-3,0
GLOBAL-16,2021-120B,2026-06-24T06:04:06.345408,15.50472291,.00138137,41.9965,11.0456,292.5011,67.4370,0,U,49950,999,25594,.40247686E-3,.23381E-3,0
XW-3 (CAS-9),2021-131B,2026-06-24T06:34:50.329632,14.41362651,.00053741,98.4979,267.6255,80.3481,279.8315,0,U,50466,999,23613,.11504208E-3,.328E-5,0
ION SCV-004,2022-002K,2026-06-24T05:31:54.068160,15.30510223,.00063852,97.2832,232.7568,341.4877,18.6131,0,U,50993,999,24637,.15691651E-3,.4556E-4,0
ETV-A1,2022-002CE,2026-06-24T05:20:47.447232,15.40807289,.00038016,97.2878,241.5079,333.9391,26.1664,0,U,51060,999,24692,.2477197E-3,.10069E-3,0
BRO-5,2022-002CF,2026-06-24T07:10:38.360640,15.47707867,.0003705,97.2998,249.0319,292.8948,67.1911,0,U,51061,999,24735,.5348309E-3,.27641E-3,0
