HAIYANG-2D              
1 48621U 21043A   26175.30508579  .00000149  00000+0  20935-3 0  9994
2 48621  65.9993 286.9786 0011500 267.9363  92.0388 13.83372231257538
2021-050D               
1 48843U 21050D   26175.29840922  .00005077  00000+0  21634-3 0  9999
2 48843  97.3334 251.1726 0004347 226.7894 133.2980 15.23389168280044
TYVAK-0173              
1 48892U 21059P   26175.15268691  .00001368  00000+0  17672-3 0  9990
2 48892  96.0083 249.7781 0009363  18.2027 341.9524 14.81909525269276
MANDRAKE 2 ABLE         
1 48907U 21059AE  26175.25205086  .00018918  00000+0  28110-3 0  9995
2 48907  97.7036   5.5764 0003861 335.9370  24.1702 15.55228365278226
MANDRAKE 2 BAKER        
1 48908U 21059AF  26175.29114714  .00023899  00000+0  29816-3 0  9995
2 48908  97.7004   8.5400 0002331 333.8250  26.2888 15.59887079278402
PACE-1                  
1 48909U 21059AG  26175.11914682  .00086510  00000+0  44454-3 0  9993
2 48909  97.6759  14.0483 0001860 234.1365 125.9730 15.80979962278891
YAM-3                   
1 48915U 21059AN  26175.23956445  .00010327  00000+0  19473-3 0  9992
2 48915  97.6994   2.6567 0004223 345.0427  15.0697 15.48691372278084
FARADAY_PHOENIX         
1 48924U 21059AX  26175.05896683  .00146567  00000+0  77262-3 0  9995
2 48924  97.6802  13.8613 0003797 266.0959  93.9874 15.80245182278740
DEMO8 (TENZING)         
1 48951U 21059CA  26175.25502857  .00017944  00000+0  26665-3 0  9991
2 48951  97.7027   9.2138 0005643 326.3223  33.7671 15.55228942278404
NAPA-2                  
1 48963U 21059CN  26175.24616359  .00518318  13265-3  68659-3 0  9997
2 48963  97.6562  15.4948 0004111 231.6374 128.4538 16.06763390278943
FENGYUN 3E              
1 49008U 21062A   26175.31885531  .00000002  00000+0  21684-4 0  9993
2 49008  98.7498 178.6474 0002817  73.8457 286.3029 14.19904912257595
ISS (NAUKA)             
1 49044U 21066A   26175.15560926  .00007363  00000+0  13975-3 0  9997
2 49044  51.6326 265.6000 0004427 224.4953 135.5681 15.49396189571682
STARLINK-3100           
1 49144U 21082Q   26174.98331387 -.00000046  00000+0  38995-5 0  9996
2 49144  70.0001  26.4436 0002975 268.1433  91.9385 14.98330298261907
CUTE                    
1 49263U 21088D   26175.21813702  .00266732  29870-4  67918-3 0  9998
2 49263  97.4172 275.2045 0007667 220.2965 139.7743 15.95360523263670
2021-091B               
1 49316U 21091B   26175.30829752  .00001658  00000+0  83312-4 0  9993
2 49316  97.4483   2.7738 0013994  22.8064 337.3789 15.18582144260068
SDGSAT 1                
1 49387U 21100A   26175.27841810  .00002331  00000+0  11404-3 0  9998
2 49387  97.2629 221.9587 0007827 241.9907 118.0537 15.19137531256990
TEIKYOSAT-4 (OORURI)    
1 49396U 21102B   26175.08092716  .00001556  00000+0  10074-3 0  9992
2 49396  97.3666 204.2963 0010338 269.1593  90.8452 15.09529088253764
Z-SAT                   
1 49399U 21102E   26175.24992905  .00003528  00000+0  17473-3 0  9993
2 49399  97.3326 210.3586 0015447 217.8039 142.2111 15.18306181254515
HIBARI                  
1 49400U 21102F   26175.12648028  .00009895  00000+0  32346-3 0  9996
2 49400  97.3238 220.9508 0012181 167.6885 192.4657 15.31850016255254
KOSEN-1                 
1 49402U 21102H   26175.08841658  .00006486  00000+0  24747-3 0  9996
2 49402  97.3188 217.1116 0013946 175.9347 184.2008 15.26916621255076
GLOBAL-14               
1 49469U 21106A   26174.91288480  .00022613  00000+0  38358-3 0  9995
2 49469  42.0036 251.1004 0014963  69.0773 291.1672 15.50885236259172
GAOFEN-3 02             
1 49495U 21109A   26175.33358999  .00000146  00000+0  57608-4 0  9994
2 49495  98.4094 183.3291 0002472 358.5461   1.5721 14.42218181241343
GLOBAL-12               
1 49772U 21115BA  26175.27763016  .00029575  00000+0  45522-3 0  9990
2 49772  53.1960  10.4381 0002850  75.8214 284.3114 15.53987671257003
GLOBAL-13               
1 49773U 21115BB  26174.97162670  .00019314  00000+0  39364-3 0  9993
2 49773  53.1984  22.3309 0003238 125.5858 234.5453 15.46272217256816
GLOBAL-17               
1 49949U 21120A   26175.22988883  .00026206  00000+0  41701-3 0  9991
2 49949  41.9961   7.3190 0015726 301.1586  58.7716 15.52585802255997
GLOBAL-16               
1 49950U 21120B   26175.25285122  .00023381  00000+0  40248-3 0  9998
2 49950  41.9965  11.0456 0013813 292.5011  67.4370 15.50472291255944
XW-3 (CAS-9)            
1 50466U 21131B   26175.27419363  .00000328  00000+0  11504-3 0  9991
2 50466  98.4979 267.6255 0005374  80.3481 279.8315 14.41362651236138
ION SCV-004             
1 50993U 22002K   26175.23048690  .00004556  00000+0  15692-3 0  9990
2 50993  97.2832 232.7568 0006385 341.4877  18.6131 15.30510223246372
ETV-A1                  
1 51060U 22002CE  26175.22277138  .00010069  00000+0  24772-3 0  9991
2 51060  97.2878 241.5079 0003801 333.9391  26.1664 15.40807289246928
BRO-5                   
1 51061U 22002CF  26175.29905510  .00027641  00000+0  53483-3 0  9996
2 51061  97.2998 249.0319 0003705 292.8948  67.1911 15.47707867247352
